{"type": "FeatureCollection", "features": [ {"type": "Feature", "properties": {"norad_id": 29750, "name": "FENGYUN 1C DEB", "group": "fengyun-1c-debris", "lat": 34.571347720154435, "lon": 17.587219355723843, "alt_km": 869.7202273204111, "timestamp": "2025-12-20T18:51:31.985246+00:00", "meta": {"OBJECT_NAME": "FENGYUN 1C DEB", "OBJECT_ID": "1999-025AQ", "EPOCH": "2025-12-20T08:31:24.310272", "MEAN_MOTION": 14.09650353, "ECCENTRICITY": 0.00350469, "INCLINATION": 98.7538, "RA_OF_ASC_NODE": 23.2636, "ARG_OF_PERICENTER": 279.2753, "MEAN_ANOMALY": 91.3043, "EPHEMERIS_TYPE": 0, "CLASSIFICATION_TYPE": "U", "NORAD_CAT_ID": 29750, "ELEMENT_SET_NO": 999, "REV_AT_EPOCH": 97181, "BSTAR": 0.0001979347, "MEAN_MOTION_DOT": 3.06e-06, "MEAN_MOTION_DDOT": 0}, "tle": {"line1": "1 29750U 99025AQ  25354.35514248  .00000306  00000+0  19793-3 0  9999", "line2": "2 29750  98.7538  23.2636 0035046 279.2753  91.3043 14.09650353971812"}}, "geometry": {"type": "Point", "coordinates": [17.587219355723843, 34.571347720154435]}}, {"type": "Feature", "properties": {"norad_id": 29751, "name": "FENGYUN 1C DEB", "group": "fengyun-1c-debris", "lat": -36.472090720070305, "lon": -163.9524660417767, "alt_km": 831.0108687041484, "timestamp": "2025-12-20T18:51:31.985257+00:00", "meta": {"OBJECT_NAME": "FENGYUN 1C DEB", "OBJECT_ID": "1999-025AR", "EPOCH": "2025-12-20T01:14:36.640608", "MEAN_MOTION": 14.23634686, "ECCENTRICITY": 0.00901095, "INCLINATION": 98.5407, "RA_OF_ASC_NODE": 21.7126, "ARG_OF_PERICENTER": 118.1389, "MEAN_ANOMALY": 298.1534, "EPHEMERIS_TYPE": 0, "CLASSIFICATION_TYPE": "U", "NORAD_CAT_ID": 29751, "ELEMENT_SET_NO": 999, "REV_AT_EPOCH": 98177, "BSTAR": 0.0001201483, "MEAN_MOTION_DOT": 2.44e-06, "MEAN_MOTION_DDOT": 0}, "tle": {"line1": "1 29751U 99025AR  25354.05181297  .00000244  00000+0  12015-3 0  9992", "line2": "2 29751  98.5407  21.7126 0090109 118.1389 298.1534 14.23634686981775"}}, "geometry": {"type": "Point", "coordinates": [-163.9524660417767, -36.472090720070305]}}, {"type": "Feature", "properties": {"norad_id": 29754, "name": "FENGYUN 1C DEB", "group": "fengyun-1c-debris", "lat": -40.3844889018484, "lon": -90.0999476333282, "alt_km": 808.508574485053, "timestamp": "2025-12-20T18:51:31.985269+00:00", "meta": {"OBJECT_NAME": "FENGYUN 1C DEB", "OBJECT_ID": "1999-025AU", "EPOCH": "2025-12-19T18:50:45.316608", "MEAN_MOTION": 14.1917499, "ECCENTRICITY": 0.00363225, "INCLINATION": 98.8847, "RA_OF_ASC_NODE": 96.5432, "ARG_OF_PERICENTER": 219.3286, "MEAN_ANOMALY": 292.5929, "EPHEMERIS_TYPE": 0, "CLASSIFICATION_TYPE": "U", "NORAD_CAT_ID": 29754, "ELEMENT_SET_NO": 999, "REV_AT_EPOCH": 97454, "BSTAR": 0.00066478726, "MEAN_MOTION_DOT": 1.356e-05, "MEAN_MOTION_DDOT": 0}, "tle": {"line1": "1 29754U 99025AU  25353.78524672  .00001356  00000+0  66479-3 0  9990", "line2": "2 29754  98.8847  96.5432 0036322 219.3286 292.5929 14.19174990974541"}}, "geometry": {"type": "Point", "coordinates": [-90.0999476333282, -40.3844889018484]}}, {"type": "Feature", "properties": {"norad_id": 29758, "name": "FENGYUN 1C DEB", "group": "fengyun-1c-debris", "lat": 80.2941276620464, "lon": -3.497750546516607, "alt_km": 762.8375350669976, "timestamp": "2025-12-20T18:51:31.985279+00:00", "meta": {"OBJECT_NAME": "FENGYUN 1C DEB", "OBJECT_ID": "1999-025AY", "EPOCH": "2025-12-20T07:00:43.810272", "MEAN_MOTION": 14.41091254, "ECCENTRICITY": 0.00218449, "INCLINATION": 98.8557, "RA_OF_ASC_NODE": 110.275, "ARG_OF_PERICENTER": 284.4644, "MEAN_ANOMALY": 130.0955, "EPHEMERIS_TYPE": 0, "CLASSIFICATION_TYPE": "U", "NORAD_CAT_ID": 29758, "ELEMENT_SET_NO": 999, "REV_AT_EPOCH": 97780, "BSTAR": 0.0016480981, "MEAN_MOTION_DOT": 5.278e-05, "MEAN_MOTION_DDOT": 0}, "tle": {"line1": "1 29758U 99025AY  25354.29217373  .00005278  00000+0  16481-2 0  9992", "line2": "2 29758  98.8557 110.2750 0021844 284.4644 130.0955 14.41091254977807"}}, "geometry": {"type": "Point", "coordinates": [-3.497750546516607, 80.2941276620464]}}, {"type": "Feature", "properties": {"norad_id": 29760, "name": "FENGYUN 1C DEB", "group": "fengyun-1c-debris", "lat": -49.53606930929209, "lon": 7.140290466724641, "alt_km": 960.4996201868444, "timestamp": "2025-12-20T18:51:31.985291+00:00", "meta": {"OBJECT_NAME": "FENGYUN 1C DEB", "OBJECT_ID": "1999-025BA", "EPOCH": "2025-12-19T22:38:29.893920", "MEAN_MOTION": 14.08292905, "ECCENTRICITY": 0.0131153, "INCLINATION": 98.7625, "RA_OF_ASC_NODE": 355.9047, "ARG_OF_PERICENTER": 153.2757, "MEAN_ANOMALY": 207.525, "EPHEMERIS_TYPE": 0, "CLASSIFICATION_TYPE": "U", "NORAD_CAT_ID": 29760, "ELEMENT_SET_NO": 999, "REV_AT_EPOCH": 97194, "BSTAR": 0.00022605, "MEAN_MOTION_DOT": 3.76e-06, "MEAN_MOTION_DDOT": 0}, "tle": {"line1": "1 29760U 99025BA  25353.94340155  .00000376  00000+0  22605-3 0  9991", "line2": "2 29760  98.7625 355.9047 0131153 153.2757 207.5250 14.08292905971941"}}, "geometry": {"type": "Point", "coordinates": [7.140290466724641, -49.53606930929209]}}, {"type": "Feature", "properties": {"norad_id": 29762, "name": "FENGYUN 1C DEB", "group": "fengyun-1c-debris", "lat": -30.26874468821014, "lon": -17.573125613764002, "alt_km": 682.3159769974554, "timestamp": "2025-12-20T18:51:31.985305+00:00", "meta": {"OBJECT_NAME": "FENGYUN 1C DEB", "OBJECT_ID": "1999-025BC", "EPOCH": "2025-12-19T16:50:30.552000", "MEAN_MOTION": 14.22596702, "ECCENTRICITY": 0.02035998, "INCLINATION": 98.5799, "RA_OF_ASC_NODE": 336.3156, "ARG_OF_PERICENTER": 315.3656, "MEAN_ANOMALY": 224.7909, "EPHEMERIS_TYPE": 0, "CLASSIFICATION_TYPE": "U", "NORAD_CAT_ID": 29762, "ELEMENT_SET_NO": 999, "REV_AT_EPOCH": 98047, "BSTAR": 0.00026525419, "MEAN_MOTION_DOT": 6.85e-06, "MEAN_MOTION_DDOT": 0}, "tle": {"line1": "1 29762U 99025BC  25353.70174250  .00000685  00000+0  26525-3 0  9996", "line2": "2 29762  98.5799 336.3156 0203599 315.3656 224.7909 14.22596702980478"}}, "geometry": {"type": "Point", "coordinates": [-17.573125613764002, -30.26874468821014]}}, {"type": "Feature", "properties": {"norad_id": 29763, "name": "FENGYUN 1C DEB", "group": "fengyun-1c-debris", "lat": 51.41638253196497, "lon": 165.1022169852236, "alt_km": 781.5020235325528, "timestamp": "2025-12-20T18:51:31.985315+00:00", "meta": {"OBJECT_NAME": "FENGYUN 1C DEB", "OBJECT_ID": "1999-025BD", "EPOCH": "2025-12-20T04:55:48.058176", "MEAN_MOTION": 14.07880754, "ECCENTRICITY": 0.01277337, "INCLINATION": 98.7618, "RA_OF_ASC_NODE": 333.3932, "ARG_OF_PERICENTER": 159.454, "MEAN_ANOMALY": 269.0441, "EPHEMERIS_TYPE": 0, "CLASSIFICATION_TYPE": "U", "NORAD_CAT_ID": 29763, "ELEMENT_SET_NO": 999, "REV_AT_EPOCH": 97155, "BSTAR": 3.2876018e-05, "MEAN_MOTION_DOT": 1.8e-07, "MEAN_MOTION_DDOT": 0}, "tle": {"line1": "1 29763U 99025BD  25354.20541734  .00000018  00000+0  32876-4 0  9995", "line2": "2 29763  98.7618 333.3932 0127733 159.4540 269.0441 14.07880754971552"}}, "geometry": {"type": "Point", "coordinates": [165.1022169852236, 51.41638253196497]}}, {"type": "Feature", "properties": {"norad_id": 29765, "name": "FENGYUN 1C DEB", "group": "fengyun-1c-debris", "lat": -25.987337298766104, "lon": -171.62628107726445, "alt_km": 923.10558889199, "timestamp": "2025-12-20T18:51:31.985326+00:00", "meta": {"OBJECT_NAME": "FENGYUN 1C DEB", "OBJECT_ID": "1999-025BF", "EPOCH": "2025-12-20T13:20:37.154976", "MEAN_MOTION": 14.02152858, "ECCENTRICITY": 0.00601251, "INCLINATION": 98.8292, "RA_OF_ASC_NODE": 12.4963, "ARG_OF_PERICENTER": 71.0906, "MEAN_ANOMALY": 55.3024, "EPHEMERIS_TYPE": 0, "CLASSIFICATION_TYPE": "U", "NORAD_CAT_ID": 29765, "ELEMENT_SET_NO": 999, "REV_AT_EPOCH": 96860, "BSTAR": -6.529971e-05, "MEAN_MOTION_DOT": -1.44e-06, "MEAN_MOTION_DDOT": 0}, "tle": {"line1": "1 29765U 99025BF  25354.55598559 -.00000144  00000+0 -65300-4 0  9992", "line2": "2 29765  98.8292  12.4963 0060125  71.0906  55.3024 14.02152858968605"}}, "geometry": {"type": "Point", "coordinates": [-171.62628107726445, -25.987337298766104]}}, {"type": "Feature", "properties": {"norad_id": 29766, "name": "FENGYUN 1C DEB", "group": "fengyun-1c-debris", "lat": -26.273080461100214, "lon": 119.64866172743734, "alt_km": 854.3302651184003, "timestamp": "2025-12-20T18:51:31.985352+00:00", "meta": {"OBJECT_NAME": "FENGYUN 1C DEB", "OBJECT_ID": "1999-025BG", "EPOCH": "2025-12-20T02:26:32.538336", "MEAN_MOTION": 13.97077061, "ECCENTRICITY": 0.01457648, "INCLINATION": 98.6863, "RA_OF_ASC_NODE": 303.33, "ARG_OF_PERICENTER": 267.7757, "MEAN_ANOMALY": 101.7738, "EPHEMERIS_TYPE": 0, "CLASSIFICATION_TYPE": "U", "NORAD_CAT_ID": 29766, "ELEMENT_SET_NO": 999, "REV_AT_EPOCH": 95907, "BSTAR": 0.00071366029, "MEAN_MOTION_DOT": 1.048e-05, "MEAN_MOTION_DDOT": 0}, "tle": {"line1": "1 29766U 99025BG  25354.10176549  .00001048  00000+0  71366-3 0  9995", "line2": "2 29766  98.6863 303.3300 0145764 267.7757 101.7738 13.97077061959070"}}, "geometry": {"type": "Point", "coordinates": [119.64866172743734, -26.273080461100214]}}, {"type": "Feature", "properties": {"norad_id": 29767, "name": "FENGYUN 1C DEB", "group": "fengyun-1c-debris", "lat": -78.82709208297938, "lon": 9.581469826741332, "alt_km": 1007.0842634807223, "timestamp": "2025-12-20T18:51:31.985365+00:00", "meta": {"OBJECT_NAME": "FENGYUN 1C DEB", "OBJECT_ID": "1999-025BH", "EPOCH": "2025-12-20T09:40:25.553856", "MEAN_MOTION": 14.03413074, "ECCENTRICITY": 0.03330576, "INCLINATION": 98.1983, "RA_OF_ASC_NODE": 322.3589, "ARG_OF_PERICENTER": 39.5094, "MEAN_ANOMALY": 108.9508, "EPHEMERIS_TYPE": 0, "CLASSIFICATION_TYPE": "U", "NORAD_CAT_ID": 29767, "ELEMENT_SET_NO": 999, "REV_AT_EPOCH": 95707, "BSTAR": 0.0015580267, "MEAN_MOTION_DOT": 3.951e-05, "MEAN_MOTION_DDOT": 0}, "tle": {"line1": "1 29767U 99025BH  25354.40307354  .00003951  00000+0  15580-2 0  9999", "line2": "2 29767  98.1983 322.3589 0333057  39.5094 108.9508 14.03413074957070"}}, "geometry": {"type": "Point", "coordinates": [9.581469826741332, -78.82709208297938]}}]}